[
    {
        "Altitude(m)": 553719.695290697,
        "Argument of Periapsis(deg)": 0.013245982221427002,
        "Eccentricity": 0.0,
        "Inclination(deg)": 53.0,
        "Latitude(deg)": 18.862518495780623,
        "Longitude(deg)": 98.25839335395325,
        "Mean Anomaly(deg)": 23.819585735155172,
        "RAAN(deg)": 184.98028673705602,
        "Satellite Name": "Starlink Shell 1 814",
        "Satellite Number": 814,
        "Semi-Major Axis(m)": 6931778.249405717,
        "Time(s)": 380
    },
    {
        "Altitude(m)": 553755.0934479252,
        "Argument of Periapsis(deg)": 0.013594560700938237,
        "Eccentricity": 0.0,
        "Inclination(deg)": 53.0,
        "Latitude(deg)": 19.34885988072145,
        "Longitude(deg)": 98.63880067445885,
        "Mean Anomaly(deg)": 24.446416938711895,
        "RAAN(deg)": 184.97976796697859,
        "Satellite Name": "Starlink Shell 1 814",
        "Satellite Number": 814,
        "Semi-Major Axis(m)": 6931778.249405717,
        "Time(s)": 390
    },
    {
        "Altitude(m)": 553792.6284565695,
        "Argument of Periapsis(deg)": 0.013943139180449475,
        "Eccentricity": 0.0,
        "Inclination(deg)": 53.0,
        "Latitude(deg)": 19.834196067085703,
        "Longitude(deg)": 99.02171123926153,
        "Mean Anomaly(deg)": 25.07324814226859,
        "RAAN(deg)": 184.97924919690107,
        "Satellite Name": "Starlink Shell 1 814",
        "Satellite Number": 814,
        "Semi-Major Axis(m)": 6931778.249405717,
        "Time(s)": 400
    },
    {
        "Altitude(m)": 553832.2606823465,
        "Argument of Periapsis(deg)": 0.014291717659960712,
        "Eccentricity": 0.0,
        "Inclination(deg)": 53.0,
        "Latitude(deg)": 20.318493801577176,
        "Longitude(deg)": 99.407203358912,
        "Mean Anomaly(deg)": 25.700079345825312,
        "RAAN(deg)": 184.97873042682363,
        "Satellite Name": "Starlink Shell 1 814",
        "Satellite Number": 814,
        "Semi-Major Axis(m)": 6931778.249405717,
        "Time(s)": 410
    },
    {
        "Altitude(m)": 553873.9495917154,
        "Argument of Periapsis(deg)": 0.014640296139471948,
        "Eccentricity": 0.0,
        "Inclination(deg)": 53.0,
        "Latitude(deg)": 20.80171923730644,
        "Longitude(deg)": 99.79535588671811,
        "Mean Anomaly(deg)": 26.326910549382053,
        "RAAN(deg)": 184.97821165674614,
        "Satellite Name": "Starlink Shell 1 814",
        "Satellite Number": 814,
        "Semi-Major Axis(m)": 6931778.249405717,
        "Time(s)": 420
    },
    {
        "Altitude(m)": 553917.6537744415,
        "Argument of Periapsis(deg)": 0.014988874618983185,
        "Eccentricity": 0.0,
        "Inclination(deg)": 53.0,
        "Latitude(deg)": 21.283837912429078,
        "Longitude(deg)": 100.18624874765396,
        "Mean Anomaly(deg)": 26.95374175293875,
        "RAAN(deg)": 184.97769288666862,
        "Satellite Name": "Starlink Shell 1 814",
        "Satellite Number": 814,
        "Semi-Major Axis(m)": 6931778.249405717,
        "Time(s)": 430
    },
    {
        "Altitude(m)": 553963.3309665842,
        "Argument of Periapsis(deg)": 0.015337453098494424,
        "Eccentricity": 0.0,
        "Inclination(deg)": 53.0,
        "Latitude(deg)": 21.764814728299264,
        "Longitude(deg)": 100.57996346673951,
        "Mean Anomaly(deg)": 27.580572956495473,
        "RAAN(deg)": 184.9771741165912,
        "Satellite Name": "Starlink Shell 1 814",
        "Satellite Number": 814,
        "Semi-Major Axis(m)": 6931778.249405717,
        "Time(s)": 440
    },
    {
        "Altitude(m)": 554010.9380738356,
        "Argument of Periapsis(deg)": 0.01568603157800566,
        "Eccentricity": 0.0,
        "Inclination(deg)": 53.0,
        "Latitude(deg)": 22.244613927130146,
        "Longitude(deg)": 100.97658218394089,
        "Mean Anomaly(deg)": 28.207404160052167,
        "RAAN(deg)": 184.97665534651372,
        "Satellite Name": "Starlink Shell 1 814",
        "Satellite Number": 814,
        "Semi-Major Axis(m)": 6931778.249405717,
        "Time(s)": 450
    },
    {
        "Altitude(m)": 554060.4311953097,
        "Argument of Periapsis(deg)": 0.0160346100575169,
        "Eccentricity": 0.0,
        "Inclination(deg)": 53.0,
        "Latitude(deg)": 22.72319906915226,
        "Longitude(deg)": 101.3761881812583,
        "Mean Anomaly(deg)": 28.83423536360889,
        "RAAN(deg)": 184.97613657643623,
        "Satellite Name": "Starlink Shell 1 814",
        "Satellite Number": 814,
        "Semi-Major Axis(m)": 6931778.249405717,
        "Time(s)": 460
    },
    {
        "Altitude(m)": 554111.7656476422,
        "Argument of Periapsis(deg)": 0.016383188537028134,
        "Eccentricity": 0.0,
        "Inclination(deg)": 53.0,
        "Latitude(deg)": 23.200533009262276,
        "Longitude(deg)": 101.77886640903638,
        "Mean Anomaly(deg)": 29.46106656716561,
        "RAAN(deg)": 184.97561780635877,
        "Satellite Name": "Starlink Shell 1 814",
        "Satellite Number": 814,
        "Semi-Major Axis(m)": 6931778.249405717,
        "Time(s)": 470
    },
    {
        "Altitude(m)": 554164.8959894595,
        "Argument of Periapsis(deg)": 0.01673176701653937,
        "Eccentricity": 0.0,
        "Inclination(deg)": 53.0,
        "Latitude(deg)": 23.676577873156493,
        "Longitude(deg)": 102.18470249852659,
        "Mean Anomaly(deg)": 30.087897770722332,
        "RAAN(deg)": 184.9750990362813,
        "Satellite Name": "Starlink Shell 1 814",
        "Satellite Number": 814,
        "Semi-Major Axis(m)": 6931778.249405717,
        "Time(s)": 480
    },
    {
        "Altitude(m)": 554219.7760462257,
        "Argument of Periapsis(deg)": 0.017080345496050607,
        "Eccentricity": 0.0,
        "Inclination(deg)": 53.0,
        "Latitude(deg)": 24.151295032941697,
        "Longitude(deg)": 102.59378328634459,
        "Mean Anomaly(deg)": 30.714728974279026,
        "RAAN(deg)": 184.97458026620382,
        "Satellite Name": "Starlink Shell 1 814",
        "Satellite Number": 814,
        "Semi-Major Axis(m)": 6931778.249405717,
        "Time(s)": 490
    },
    {
        "Altitude(m)": 554276.3589353692,
        "Argument of Periapsis(deg)": 0.017428923975561842,
        "Eccentricity": 0.0,
        "Inclination(deg)": 53.0,
        "Latitude(deg)": 24.6246450822204,
        "Longitude(deg)": 103.00619733783446,
        "Mean Anomaly(deg)": 31.34156017783575,
        "RAAN(deg)": 184.97406149612635,
        "Satellite Name": "Starlink Shell 1 814",
        "Satellite Number": 814,
        "Semi-Major Axis(m)": 6931778.249405717,
        "Time(s)": 500
    },
    {
        "Altitude(m)": 554334.5970917535,
        "Argument of Periapsis(deg)": 0.01777750245507308,
        "Eccentricity": 0.0,
        "Inclination(deg)": 53.0,
        "Latitude(deg)": 25.096587810646593,
        "Longitude(deg)": 103.42203395634215,
        "Mean Anomaly(deg)": 31.968391381392472,
        "RAAN(deg)": 184.97354272604886,
        "Satellite Name": "Starlink Shell 1 814",
        "Satellite Number": 814,
        "Semi-Major Axis(m)": 6931778.249405717,
        "Time(s)": 510
    },
    {
        "Altitude(m)": 554394.4422934517,
        "Argument of Periapsis(deg)": 0.018126080934584315,
        "Eccentricity": 0.0,
        "Inclination(deg)": 53.0,
        "Latitude(deg)": 25.56708217794992,
        "Longitude(deg)": 103.84138370401423,
        "Mean Anomaly(deg)": 32.59522258494919,
        "RAAN(deg)": 184.9730239559714,
        "Satellite Name": "Starlink Shell 1 814",
        "Satellite Number": 814,
        "Semi-Major Axis(m)": 6931778.249405717,
        "Time(s)": 520
    },
    {
        "Altitude(m)": 554455.8456877975,
        "Argument of Periapsis(deg)": 0.018474659414095554,
        "Eccentricity": 0.0,
        "Inclination(deg)": 53.0,
        "Latitude(deg)": 26.036086287428738,
        "Longitude(deg)": 104.26433892110514,
        "Mean Anomaly(deg)": 33.22205378850591,
        "RAAN(deg)": 184.9725051858939,
        "Satellite Name": "Starlink Shell 1 814",
        "Satellite Number": 814,
        "Semi-Major Axis(m)": 6931778.249405717,
        "Time(s)": 530
    },
    {
        "Altitude(m)": 554518.7578177188,
        "Argument of Periapsis(deg)": 0.018823237893606792,
        "Eccentricity": 0.0,
        "Inclination(deg)": 53.0,
        "Latitude(deg)": 26.50355735891294,
        "Longitude(deg)": 104.69099273076321,
        "Mean Anomaly(deg)": 33.84888499206261,
        "RAAN(deg)": 184.97198641581647,
        "Satellite Name": "Starlink Shell 1 814",
        "Satellite Number": 814,
        "Semi-Major Axis(m)": 6931778.249405717,
        "Time(s)": 540
    },
    {
        "Altitude(m)": 554583.1286483294,
        "Argument of Periapsis(deg)": 0.019171816373118027,
        "Eccentricity": 0.0,
        "Inclination(deg)": 53.0,
        "Latitude(deg)": 26.96945170120045,
        "Longitude(deg)": 105.12143955488013,
        "Mean Anomaly(deg)": 34.47571619561933,
        "RAAN(deg)": 184.97146764573895,
        "Satellite Name": "Starlink Shell 1 814",
        "Satellite Number": 814,
        "Semi-Major Axis(m)": 6931778.249405717,
        "Time(s)": 550
    },
    {
        "Altitude(m)": 554648.907593774,
        "Argument of Periapsis(deg)": 0.019520394852629266,
        "Eccentricity": 0.0,
        "Inclination(deg)": 53.0,
        "Latitude(deg)": 27.43372468397242,
        "Longitude(deg)": 105.55577562795175,
        "Mean Anomaly(deg)": 35.102547399176025,
        "RAAN(deg)": 184.97094887566152,
        "Satellite Name": "Starlink Shell 1 814",
        "Satellite Number": 814,
        "Semi-Major Axis(m)": 6931778.249405717,
        "Time(s)": 560
    }
]